ORBCOMM FM33            
1 25983U 99065D   25050.55209999  .00003131  00000+0  10397-2 0  9995
2 25983  45.0269 198.0596 0009916 191.2166 168.8464 14.39479113319118
ORBCOMM FM36            
1 25984U 99065E   25050.01423844  .00002421  00000+0  84662-3 0  9992
2 25984  45.0389 290.7256 0003845  63.4046 296.7196 14.37581586317417
ORBCOMM FM35            
1 25985U 99065F   25050.39843963  .00002102  00000+0  75549-3 0  9992
2 25985  45.0391 293.0334 0003060 157.0873 203.0112 14.36638209317841
ORBCOMM FM34            
1 25986U 99065G   25050.36745387  .00002329  00000+0  83096-3 0  9998
2 25986  45.0387 293.6867 0003897 102.3317 257.7968 14.36685578317956
ORBCOMM FM38            
1 33060U 08031A   25050.54704525  .00005682  00000+0  76202-3 0  9998
2 33060  48.4390 155.5708 0006426 253.8817 106.1391 14.80443480897310
ORBCOMM FM41            
1 33061U 08031B   25050.58855744  .00004649  00000+0  63433-3 0  9997
2 33061  48.4424 162.7610 0005547 241.4468 131.9630 14.80064633896814
ORBCOMM FM29            
1 33062U 08031C   25050.52797390  .00004852  00000+0  65983-3 0  9992
2 33062  48.4377 170.9841 0007300 238.6097 220.7925 14.80115802896712
ORBCOMM FM39            
1 33063U 08031D   25050.56354885  .00004555  00000+0  64086-3 0  9998
2 33063  48.4390 193.8364 0007994 213.6447 146.3961 14.78780229896387
